{
  "type": "FeatureCollection",
  "features": [
    {
      "type": "Feature",
      "properties": {
        "norad_id": 66520,
        "name": "STARLINK-35952",
        "group": "last-30-days",
        "lat": -12.21669449558301,
        "lon": -51.392201113141404,
        "alt_km": 345.88445466439225,
        "timestamp": "2025-12-02T10:50:46.052878+00:00",
        "meta_object_name": "STARLINK-35952",
        "meta_object_id": "2025-265E",
        "meta_epoch": "2025-12-02T04:00:03.998880",
        "meta_mean_motion": 15.75235655,
        "meta_eccentricity": 0.0001566,
        "meta_inclination": 42.9994,
        "meta_ra_of_asc_node": 116.903,
        "meta_arg_of_pericenter": 293.5023,
        "meta_mean_anomaly": 85.2607,
        "meta_ephemeris_type": 0,
        "meta_classification_type": "U",
        "meta_norad_cat_id": 66520,
        "meta_element_set_no": 999,
        "meta_rev_at_epoch": 329,
        "meta_bstar": -0.0022687,
        "meta_mean_motion_dot": -0.00338275,
        "meta_mean_motion_ddot": 0,
        "tle_line1": "1 66520U 25265E   25336.16671295 -.00338275  00000+0 -22687-2 0  9991",
        "tle_line2": "2 66520  42.9994 116.9030 0001566 293.5023  85.2607 15.75235655  3296"
      },
      "geometry": {
        "type": "Point",
        "coordinates": [
          -51.392201113141404,
          -12.21669449558301
        ]
      }
    },
    {
      "type": "Feature",
      "properties": {
        "norad_id": 66521,
        "name": "STARLINK-35915",
        "group": "last-30-days",
        "lat": -13.501177327513954,
        "lon": -49.90128172084729,
        "alt_km": 345.7002283916463,
        "timestamp": "2025-12-02T10:50:46.052888+00:00",
        "meta_object_name": "STARLINK-35915",
        "meta_object_id": "2025-265F",
        "meta_epoch": "2025-12-02T04:00:03.998880",
        "meta_mean_motion": 15.75226349,
        "meta_eccentricity": 0.0001567,
        "meta_inclination": 42.9996,
        "meta_ra_of_asc_node": 116.898,
        "meta_arg_of_pericenter": 280.864,
        "meta_mean_anomaly": 99.8412,
        "meta_ephemeris_type": 0,
        "meta_classification_type": "U",
        "meta_norad_cat_id": 66521,
        "meta_element_set_no": 999,
        "meta_rev_at_epoch": 329,
        "meta_bstar": -0.0020122,
        "meta_mean_motion_dot": -0.00301271,
        "meta_mean_motion_ddot": 0,
        "tle_line1": "1 66521U 25265F   25336.16671295 -.00301271  00000+0 -20122-2 0  9990",
        "tle_line2": "2 66521  42.9996 116.8980 0001567 280.8640  99.8412 15.75226349  3292"
      },
      "geometry": {
        "type": "Point",
        "coordinates": [
          -49.90128172084729,
          -13.501177327513954
        ]
      }
    },
    {
      "type": "Feature",
      "properties": {
        "norad_id": 66522,
        "name": "STARLINK-35946",
        "group": "last-30-days",
        "lat": -14.70659177052414,
        "lon": -48.47744618148118,
        "alt_km": 345.5583608864499,
        "timestamp": "2025-12-02T10:50:46.052900+00:00",
        "meta_object_name": "STARLINK-35946",
        "meta_object_id": "2025-265G",
        "meta_epoch": "2025-12-02T04:00:03.998880",
        "meta_mean_motion": 15.75015865,
        "meta_eccentricity": 0.0001739,
        "meta_inclination": 42.9993,
        "meta_ra_of_asc_node": 116.8931,
        "meta_arg_of_pericenter": 269.7641,
        "meta_mean_anomaly": 112.8892,
        "meta_ephemeris_type": 0,
        "meta_classification_type": "U",
        "meta_norad_cat_id": 66522,
        "meta_element_set_no": 999,
        "meta_rev_at_epoch": 329,
        "meta_bstar": 0.00034738,
        "meta_mean_motion_dot": 0.00053166,
        "meta_mean_motion_ddot": 0,
        "tle_line1": "1 66522U 25265G   25336.16671295  .00053166  00000+0  34738-3 0  9995",
        "tle_line2": "2 66522  42.9993 116.8931 0001739 269.7641 112.8892 15.75015865  3291"
      },
      "geometry": {
        "type": "Point",
        "coordinates": [
          -48.47744618148118,
          -14.70659177052414
        ]
      }
    },
    {
      "type": "Feature",
      "properties": {
        "norad_id": 66523,
        "name": "STARLINK-35969",
        "group": "last-30-days",
        "lat": -15.95480134943093,
        "lon": -46.975511326567805,
        "alt_km": 345.7131103839183,
        "timestamp": "2025-12-02T10:50:46.052910+00:00",
        "meta_object_name": "STARLINK-35969",
        "meta_object_id": "2025-265H",
        "meta_epoch": "2025-12-02T04:00:03.998880",
        "meta_mean_motion": 15.75016894,
        "meta_eccentricity": 0.0001625,
        "meta_inclination": 42.9998,
        "meta_ra_of_asc_node": 116.8883,
        "meta_arg_of_pericenter": 274.8283,
        "meta_mean_anomaly": 109.7313,
        "meta_ephemeris_type": 0,
        "meta_classification_type": "U",
        "meta_norad_cat_id": 66523,
        "meta_element_set_no": 999,
        "meta_rev_at_epoch": 329,
        "meta_bstar": 0.0005329,
        "meta_mean_motion_dot": 0.00082101,
        "meta_mean_motion_ddot": 0,
        "tle_line1": "1 66523U 25265H   25336.16671295  .00082101  00000+0  53290-3 0  9991",
        "tle_line2": "2 66523  42.9998 116.8883 0001625 274.8283 109.7313 15.75016894  3292"
      },
      "geometry": {
        "type": "Point",
        "coordinates": [
          -46.975511326567805,
          -15.95480134943093
        ]
      }
    },
    {
      "type": "Feature",
      "properties": {
        "norad_id": 66524,
        "name": "STARLINK-35687",
        "group": "last-30-days",
        "lat": -17.19128835167574,
        "lon": -45.45596543995229,
        "alt_km": 345.7558048849214,
        "timestamp": "2025-12-02T10:50:46.052922+00:00",
        "meta_object_name": "STARLINK-35687",
        "meta_object_id": "2025-265J",
        "meta_epoch": "2025-12-02T04:00:03.998880",
        "meta_mean_motion": 15.75008551,
        "meta_eccentricity": 0.0001792,
        "meta_inclination": 42.9997,
        "meta_ra_of_asc_node": 116.8833,
        "meta_arg_of_pericenter": 273.5227,
        "meta_mean_anomaly": 112.962,
        "meta_ephemeris_type": 0,
        "meta_classification_type": "U",
        "meta_norad_cat_id": 66524,
        "meta_element_set_no": 999,
        "meta_rev_at_epoch": 329,
        "meta_bstar": 0.00053623,
        "meta_mean_motion_dot": 0.00082593,
        "meta_mean_motion_ddot": 0,
        "tle_line1": "1 66524U 25265J   25336.16671295  .00082593  00000+0  53623-3 0  9997",
        "tle_line2": "2 66524  42.9997 116.8833 0001792 273.5227 112.9620 15.75008551  3294"
      },
      "geometry": {
        "type": "Point",
        "coordinates": [
          -45.45596543995229,
          -17.19128835167574
        ]
      }
    },
    {
      "type": "Feature",
      "properties": {
        "norad_id": 66525,
        "name": "STARLINK-35975",
        "group": "last-30-days",
        "lat": -18.42028656451773,
        "lon": -43.9101096377212,
        "alt_km": 345.757274847193,
        "timestamp": "2025-12-02T10:50:46.052932+00:00",
        "meta_object_name": "STARLINK-35975",
        "meta_object_id": "2025-265K",
        "meta_epoch": "2025-12-02T04:00:03.998880",
        "meta_mean_motion": 15.75018888,
        "meta_eccentricity": 0.0001595,
        "meta_inclination": 42.9995,
        "meta_ra_of_asc_node": 116.8789,
        "meta_arg_of_pericenter": 265.4807,
        "meta_mean_anomaly": 122.9192,
        "meta_ephemeris_type": 0,
        "meta_classification_type": "U",
        "meta_norad_cat_id": 66525,
        "meta_element_set_no": 999,
        "meta_rev_at_epoch": 329,
        "meta_bstar": 0.00036964,
        "meta_mean_motion_dot": 0.00056635,
        "meta_mean_motion_ddot": 0,
        "tle_line1": "1 66525U 25265K   25336.16671295  .00056635  00000+0  36964-3 0  9995",
        "tle_line2": "2 66525  42.9995 116.8789 0001595 265.4807 122.9192 15.75018888  3297"
      },
      "geometry": {
        "type": "Point",
        "coordinates": [
          -43.9101096377212,
          -18.42028656451773
        ]
      }
    },
    {
      "type": "Feature",
      "properties": {
        "norad_id": 66526,
        "name": "STARLINK-35932",
        "group": "last-30-days",
        "lat": -19.630266497864177,
        "lon": -42.350748817879825,
        "alt_km": 345.8793559627875,
        "timestamp": "2025-12-02T10:50:46.052944+00:00",
        "meta_object_name": "STARLINK-35932",
        "meta_object_id": "2025-265L",
        "meta_epoch": "2025-12-02T04:00:03.998880",
        "meta_mean_motion": 15.75004409,
        "meta_eccentricity": 0.0001621,
        "meta_inclination": 42.9996,
        "meta_ra_of_asc_node": 116.8742,
        "meta_arg_of_pericenter": 267.7566,
        "meta_mean_anomaly": 122.5661,
        "meta_ephemeris_type": 0,
        "meta_classification_type": "U",
        "meta_norad_cat_id": 66526,
        "meta_element_set_no": 999,
        "meta_rev_at_epoch": 318,
        "meta_bstar": 0.00046423,
        "meta_mean_motion_dot": 0.00071329,
        "meta_mean_motion_ddot": 0,
        "tle_line1": "1 66526U 25265L   25336.16671295  .00071329  00000+0  46423-3 0  9994",
        "tle_line2": "2 66526  42.9996 116.8742 0001621 267.7566 122.5661 15.75004409  3184"
      },
      "geometry": {
        "type": "Point",
        "coordinates": [
          -42.350748817879825,
          -19.630266497864177
        ]
      }
    }
  ]
}